{"type": "FeatureCollection", "features": [ {"type": "Feature", "properties": {"norad_id": 43207, "name": "BEIDOU-3 M4 (C22)", "group": "beidou", "lat": -44.216721242608536, "lon": 29.456758669486714, "alt_km": 21529.691829210347, "timestamp": "2025-12-05T19:30:25.830722+00:00", "meta": {"OBJECT_NAME": "BEIDOU-3 M4 (C22)", "OBJECT_ID": "2018-018A", "EPOCH": "2025-12-02T03:19:43.852800", "MEAN_MOTION": 1.86230706, "ECCENTRICITY": 0.00040749, "INCLINATION": 56.4768, "RA_OF_ASC_NODE": 69.6557, "ARG_OF_PERICENTER": 15.1369, "MEAN_ANOMALY": 344.8773, "EPHEMERIS_TYPE": 0, "CLASSIFICATION_TYPE": "U", "NORAD_CAT_ID": 43207, "ELEMENT_SET_NO": 999, "REV_AT_EPOCH": 5307, "BSTAR": 0, "MEAN_MOTION_DOT": -4.5e-07, "MEAN_MOTION_DDOT": 0}, "tle": {"line1": "1 43207U 18018A   25336.13870200 -.00000045  00000+0  00000+0 0  9992", "line2": "2 43207  56.4768  69.6557 0004074  15.1369 344.8773  1.86230706 53076"}}, "geometry": {"type": "Point", "coordinates": [29.456758669486714, -44.216721242608536]}}, {"type": "Feature", "properties": {"norad_id": 43208, "name": "BEIDOU-3 M3 (C21)", "group": "beidou", "lat": -54.831554364603505, "lon": -40.53366185478706, "alt_km": 21524.970391206236, "timestamp": "2025-12-05T19:30:25.830734+00:00", "meta": {"OBJECT_NAME": "BEIDOU-3 M3 (C21)", "OBJECT_ID": "2018-018B", "EPOCH": "2025-12-03T06:41:57.693408", "MEAN_MOTION": 1.86230862, "ECCENTRICITY": 0.0006282, "INCLINATION": 56.4772, "RA_OF_ASC_NODE": 69.6218, "ARG_OF_PERICENTER": 317.5873, "MEAN_ANOMALY": 42.3668, "EPHEMERIS_TYPE": 0, "CLASSIFICATION_TYPE": "U", "NORAD_CAT_ID": 43208, "ELEMENT_SET_NO": 999, "REV_AT_EPOCH": 5309, "BSTAR": 0, "MEAN_MOTION_DOT": -4.9e-07, "MEAN_MOTION_DDOT": 0}, "tle": {"line1": "1 43208U 18018B   25337.27913997 -.00000049  00000+0  00000+0 0  9994", "line2": "2 43208  56.4772  69.6218 0006282 317.5873  42.3668  1.86230862 53096"}}, "geometry": {"type": "Point", "coordinates": [-40.53366185478706, -54.831554364603505]}}, {"type": "Feature", "properties": {"norad_id": 43245, "name": "BEIDOU-3 M9 (C29)", "group": "beidou", "lat": 48.045182999750025, "lon": 73.8192925685753, "alt_km": 21527.110056329602, "timestamp": "2025-12-05T19:30:25.830746+00:00", "meta": {"OBJECT_NAME": "BEIDOU-3 M9 (C29)", "OBJECT_ID": "2018-029A", "EPOCH": "2025-12-05T02:32:47.739840", "MEAN_MOTION": 1.86227814, "ECCENTRICITY": 0.0001693, "INCLINATION": 54.3728, "RA_OF_ASC_NODE": 306.734, "ARG_OF_PERICENTER": 274.7649, "MEAN_ANOMALY": 85.198, "EPHEMERIS_TYPE": 0, "CLASSIFICATION_TYPE": "U", "NORAD_CAT_ID": 43245, "ELEMENT_SET_NO": 999, "REV_AT_EPOCH": 5228, "BSTAR": 0, "MEAN_MOTION_DOT": -6.9e-07, "MEAN_MOTION_DDOT": 0}, "tle": {"line1": "1 43245U 18029A   25339.10610810 -.00000069  00000+0  00000+0 0  9991", "line2": "2 43245  54.3728 306.7340 0001693 274.7649  85.1980  1.86227814 52287"}}, "geometry": {"type": "Point", "coordinates": [73.8192925685753, 48.045182999750025]}}, {"type": "Feature", "properties": {"norad_id": 43246, "name": "BEIDOU-3 M10 (C30)", "group": "beidou", "lat": 18.32428161038237, "lon": 112.98119582066703, "alt_km": 21536.335970239463, "timestamp": "2025-12-05T19:30:25.830757+00:00", "meta": {"OBJECT_NAME": "BEIDOU-3 M10 (C30)", "OBJECT_ID": "2018-029B", "EPOCH": "2025-12-02T08:33:31.656096", "MEAN_MOTION": 1.86228863, "ECCENTRICITY": 0.00039643, "INCLINATION": 54.3728, "RA_OF_ASC_NODE": 306.8573, "ARG_OF_PERICENTER": 359.3208, "MEAN_ANOMALY": 0.6665, "EPHEMERIS_TYPE": 0, "CLASSIFICATION_TYPE": "U", "NORAD_CAT_ID": 43246, "ELEMENT_SET_NO": 999, "REV_AT_EPOCH": 5221, "BSTAR": 0, "MEAN_MOTION_DOT": -6.2e-07, "MEAN_MOTION_DDOT": 0}, "tle": {"line1": "1 43246U 18029B   25336.35661639 -.00000062  00000+0  00000+0 0  9994", "line2": "2 43246  54.3728 306.8573 0003964 359.3208   0.6665  1.86228863 52211"}}, "geometry": {"type": "Point", "coordinates": [112.98119582066703, 18.32428161038237]}}, {"type": "Feature", "properties": {"norad_id": 43539, "name": "BEIDOU-2 IGSO-7 (C16)", "group": "beidou", "lat": -35.41682459320731, "lon": 134.99458430616423, "alt_km": 35722.025889299344, "timestamp": "2025-12-05T19:30:25.830768+00:00", "meta": {"OBJECT_NAME": "BEIDOU-2 IGSO-7 (C16)", "OBJECT_ID": "2018-057A", "EPOCH": "2025-12-04T10:49:25.352832", "MEAN_MOTION": 1.00259277, "ECCENTRICITY": 0.0092474, "INCLINATION": 55.1728, "RA_OF_ASC_NODE": 164.7444, "ARG_OF_PERICENTER": 235.1674, "MEAN_ANOMALY": 307.3303, "EPHEMERIS_TYPE": 0, "CLASSIFICATION_TYPE": "U", "NORAD_CAT_ID": 43539, "ELEMENT_SET_NO": 999, "REV_AT_EPOCH": 2717, "BSTAR": 0, "MEAN_MOTION_DOT": -3.5e-07, "MEAN_MOTION_DDOT": 0}, "tle": {"line1": "1 43539U 18057A   25338.45098788 -.00000035  00000+0  00000+0 0  9992", "line2": "2 43539  55.1728 164.7444 0092474 235.1674 307.3303  1.00259277 27177"}}, "geometry": {"type": "Point", "coordinates": [134.99458430616423, -35.41682459320731]}}, {"type": "Feature", "properties": {"norad_id": 43581, "name": "BEIDOU-3 M5 (C23)", "group": "beidou", "lat": 5.258679382640396, "lon": -167.28661564913105, "alt_km": 21522.158285635363, "timestamp": "2025-12-05T19:30:25.830779+00:00", "meta": {"OBJECT_NAME": "BEIDOU-3 M5 (C23)", "OBJECT_ID": "2018-062A", "EPOCH": "2025-12-04T04:36:50.793120", "MEAN_MOTION": 1.86228551, "ECCENTRICITY": 0.0002115, "INCLINATION": 54.0891, "RA_OF_ASC_NODE": 188.9344, "ARG_OF_PERICENTER": 351.3867, "MEAN_ANOMALY": 8.7024, "EPHEMERIS_TYPE": 0, "CLASSIFICATION_TYPE": "U", "NORAD_CAT_ID": 43581, "ELEMENT_SET_NO": 999, "REV_AT_EPOCH": 5000, "BSTAR": 0, "MEAN_MOTION_DOT": 1.07e-06, "MEAN_MOTION_DDOT": 0}, "tle": {"line1": "1 43581U 18062A   25338.19225455  .00000107  00000+0  00000+0 0  9998", "line2": "2 43581  54.0891 188.9344 0002115 351.3867   8.7024  1.86228551 50003"}}, "geometry": {"type": "Point", "coordinates": [-167.28661564913105, 5.258679382640396]}}, {"type": "Feature", "properties": {"norad_id": 43582, "name": "BEIDOU-3 M6 (C24)", "group": "beidou", "lat": 53.21732261596711, "lon": -66.94063263563768, "alt_km": 21508.782827977604, "timestamp": "2025-12-05T19:30:25.830790+00:00", "meta": {"OBJECT_NAME": "BEIDOU-3 M6 (C24)", "OBJECT_ID": "2018-062B", "EPOCH": "2025-12-04T14:12:56.874816", "MEAN_MOTION": 1.862296, "ECCENTRICITY": 0.00077069, "INCLINATION": 54.0887, "RA_OF_ASC_NODE": 188.9098, "ARG_OF_PERICENTER": 46.0149, "MEAN_ANOMALY": 314.1395, "EPHEMERIS_TYPE": 0, "CLASSIFICATION_TYPE": "U", "NORAD_CAT_ID": 43582, "ELEMENT_SET_NO": 999, "REV_AT_EPOCH": 5001, "BSTAR": 0, "MEAN_MOTION_DOT": 1.02e-06, "MEAN_MOTION_DDOT": 0}, "tle": {"line1": "1 43582U 18062B   25338.59232494  .00000102  00000+0  00000+0 0  9999", "line2": "2 43582  54.0887 188.9098 0007706  46.0149 314.1395  1.86229600 50019"}}, "geometry": {"type": "Point", "coordinates": [-66.94063263563768, 53.21732261596711]}}, {"type": "Feature", "properties": {"norad_id": 43602, "name": "BEIDOU-3 M12 (C26)", "group": "beidou", "lat": 31.24094600056773, "lon": -18.380990738476434, "alt_km": 21528.74226188324, "timestamp": "2025-12-05T19:30:25.830801+00:00", "meta": {"OBJECT_NAME": "BEIDOU-3 M12 (C26)", "OBJECT_ID": "2018-067A", "EPOCH": "2025-12-05T01:36:30.437280", "MEAN_MOTION": 1.86227634, "ECCENTRICITY": 0.0009145, "INCLINATION": 54.1831, "RA_OF_ASC_NODE": 187.6237, "ARG_OF_PERICENTER": 40.6372, "MEAN_ANOMALY": 319.5174, "EPHEMERIS_TYPE": 0, "CLASSIFICATION_TYPE": "U", "NORAD_CAT_ID": 43602, "ELEMENT_SET_NO": 999, "REV_AT_EPOCH": 4950, "BSTAR": 0, "MEAN_MOTION_DOT": 9.5e-07, "MEAN_MOTION_DDOT": 0}, "tle": {"line1": "1 43602U 18067A   25339.06701895  .00000095  00000+0  00000+0 0  9997", "line2": "2 43602  54.1831 187.6237 0009145  40.6372 319.5174  1.86227634 49501"}}, "geometry": {"type": "Point", "coordinates": [-18.380990738476434, 31.24094600056773]}}, {"type": "Feature", "properties": {"norad_id": 43603, "name": "BEIDOU-3 M11 (C25)", "group": "beidou", "lat": 38.32012787852332, "lon": -137.61256738437558, "alt_km": 21508.612694159005, "timestamp": "2025-12-05T19:30:25.830815+00:00", "meta": {"OBJECT_NAME": "BEIDOU-3 M11 (C25)", "OBJECT_ID": "2018-067B", "EPOCH": "2025-12-04T03:03:44.195904", "MEAN_MOTION": 1.86227126, "ECCENTRICITY": 0.0005572, "INCLINATION": 54.1804, "RA_OF_ASC_NODE": 187.6197, "ARG_OF_PERICENTER": 36.31, "MEAN_ANOMALY": 323.8191, "EPHEMERIS_TYPE": 0, "CLASSIFICATION_TYPE": "U", "NORAD_CAT_ID": 43603, "ELEMENT_SET_NO": 999, "REV_AT_EPOCH": 4951, "BSTAR": 0, "MEAN_MOTION_DOT": 1.09e-06, "MEAN_MOTION_DDOT": 0}, "tle": {"line1": "1 43603U 18067B   25338.12759486  .00000109  00000+0  00000+0 0  9999", "line2": "2 43603  54.1804 187.6197 0005572  36.3100 323.8191  1.86227126 49512"}}, "geometry": {"type": "Point", "coordinates": [-137.61256738437558, 38.32012787852332]}}, {"type": "Feature", "properties": {"norad_id": 43622, "name": "BEIDOU-3 M13 (C32)", "group": "beidou", "lat": 54.91922668783964, "lon": 139.65663692349327, "alt_km": 21533.90793162834, "timestamp": "2025-12-05T19:30:25.830830+00:00", "meta": {"OBJECT_NAME": "BEIDOU-3 M13 (C32)", "OBJECT_ID": "2018-072A", "EPOCH": "2025-12-03T13:07:53.541408", "MEAN_MOTION": 1.86230692, "ECCENTRICITY": 0.00056735, "INCLINATION": 56.4512, "RA_OF_ASC_NODE": 69.1249, "ARG_OF_PERICENTER": 298.6305, "MEAN_ANOMALY": 61.3164, "EPHEMERIS_TYPE": 0, "CLASSIFICATION_TYPE": "U", "NORAD_CAT_ID": 43622, "ELEMENT_SET_NO": 999, "REV_AT_EPOCH": 4901, "BSTAR": 0, "MEAN_MOTION_DOT": -5e-07, "MEAN_MOTION_DDOT": 0}, "tle": {"line1": "1 43622U 18072A   25337.54714747 -.00000050  00000+0  00000+0 0  9998", "line2": "2 43622  56.4512  69.1249 0005673 298.6305  61.3164  1.86230692 49019"}}, "geometry": {"type": "Point", "coordinates": [139.65663692349327, 54.91922668783964]}}]}